[{"OBJECT_NAME":"STARLINK-34585","OBJECT_ID":"2025-147AA","EPOCH":"2026-03-09T18:05:33.386496","MEAN_MOTION":15.30193722,"ECCENTRICITY":0.0001063,"INCLINATION":53.159,"RA_OF_ASC_NODE":242.2993,"ARG_OF_PERICENTER":82.9782,"MEAN_ANOMALY":277.134,"EPHEMERIS_TYPE":0,"CLASSIFICATION_TYPE":"U","NORAD_CAT_ID":64779,"ELEMENT_SET_NO":999,"REV_AT_EPOCH":3871,"BSTAR":0.00070632141,"MEAN_MOTION_DOT":0.00020614,"MEAN_MOTION_DDOT":0},{"OBJECT_NAME":"THORAD AGENA D DEB","OBJECT_ID":"1969-082CP","EPOCH":"2026-03-09T22:51:31.947840","MEAN_MOTION":15.31252047,"ECCENTRICITY":0.00108961,"INCLINATION":69.8927,"RA_OF_ASC_NODE":265.8646,"ARG_OF_PERICENTER":335.0972,"MEAN_ANOMALY":24.9676,"EPHEMERIS_TYPE":0,"CLASSIFICATION_TYPE":"U","NORAD_CAT_ID":4133,"ELEMENT_SET_NO":999,"REV_AT_EPOCH":97550,"BSTAR":0.0018489552,"MEAN_MOTION_DOT":0.00056347,"MEAN_MOTION_DDOT":0}]
